IRIDIUM 150             
1 43257U 18030J   25303.67948338  .00000446  00000+0  15236-3 0  9997
2 43257  86.4009  26.4014 0001928  95.0928 265.0488 14.34219451397264
IRIDIUM 143             
1 43258U 18030K   25303.31161336  .00000093  00000+0  26018-4 0  9993
2 43258  86.4014  26.6386 0001777  97.3852 262.7546 14.34217951397147
IRIDIUM 161             
1 43478U 18047C   25303.19862777  .00000476  00000+0  13543-3 0  9991
2 43478  86.4548 184.5553 0002274  83.9640 276.1820 14.43277051391967
IRIDIUM 152             
1 43479U 18047D   25303.21456297  .00000259  00000+0  85398-4 0  9998
2 43479  86.4023 184.4092 0002253  82.2032 277.9420 14.34218226389520
IRIDIUM 147             
1 43480U 18047E   25303.22090562  .00000084  00000+0  22947-4 0  9997
2 43480  86.4025 184.4079 0002136  86.0964 274.0476 14.34218205389521
IRIDIUM 110             
1 43481U 18047F   25303.22725305  .00000350  00000+0  11783-3 0  9999
2 43481  86.4026 184.4908 0002594  84.9428 275.2064 14.34218340389519
IRIDIUM 162             
1 43482U 18047G   25303.19230948  .00000468  00000+0  13326-3 0  9995
2 43482  86.4547 184.4518 0002296  77.0505 283.0952 14.43281500391955
IRIDIUM 160             
1 43569U 18061A   25303.10331572  .00000283  00000+0  94045-4 0  9996
2 43569  86.3986 152.9805 0002294  90.5509 269.5950 14.34218706380399
